{
    "CYYZ": {
        "id": "CYYZ",
        "site": "Toronto/Pearson Intl, ON, CA",
        "prior": 3,
        "obsTime": "2025-02-10T19:00:00Z",
        "temp": -4,
        "dewp": -12,
        "wdir": 250,
        "wspd": 12,
        "wgst": 18,
        "cldCvg1": "BKN",
        "cldBas1": 38,
        "ceil": 38,
        "cover": "BKN",
        "fltcat": "VFR",
        "visib": 15,
        "altim": 1028.2,
        "slp": 1029.4,
        "rawOb": "CYYZ 101900Z 25012G18KT 15SM BKN038 M04/M12 A3036 RMK SC6 SLP294",
        "geometry": {
            "type": "Point",
            "coordinates": [
                -79.629,
                43.679
            ]
        },
        "wspd_kmph": 22.2,
        "wgst_kmph": 33.3,
        "rh": 53.8,
        "weather_description": "Good evening! Here’s the weather update for Toronto/Pearson Intl. We're currently seeing a chilly temperature of <b>-4 °C</b> with a relative humidity of <b>53.8%</b>, which makes it feel even colder out there. The winds are fairly breezy, blowing at <b>22.2 km/h</b> and gusting up to <b>33.3 km/h</b>. So, if you’re heading out, make sure to bundle up and be prepared for those gusty winds. Stay warm!"
    },
    "OMDB": {
        "id": "OMDB",
        "site": "Dubai Intl, DU, AE",
        "prior": 3,
        "obsTime": "2025-02-10T19:30:00Z",
        "temp": 20,
        "dewp": 11,
        "wdir": "VRB",
        "wspd": 3,
        "cldCvg1": "CAVOK",
        "cover": "CAVOK",
        "fltcat": "VFR",
        "visib": "6+",
        "altim": 1018,
        "rawOb": "OMDB 101930Z VRB03KT CAVOK 20/11 Q1018 NOSIG",
        "geometry": {
            "type": "Point",
            "coordinates": [
                55.366,
                25.254
            ]
        },
        "wspd_kmph": 5.6,
        "rh": 56.2,
        "weather_description": "Good evening, Dubai! Currently at Dubai International, we're enjoying a pleasant temperature of <b>20 °C</b> with a relative humidity of <b>56.2%</b>. The air feels comfortable, perfect for an evening out. Winds are gentle, blowing at <b>5.6 km/h</b>, adding to the pleasant conditions. Overall, it’s a lovely night in the city, ideal for a stroll or outdoor activities. Stay tuned for more updates!"
    },
    "LTFM": {
        "id": "LTFM",
        "site": "Istanbul Arpt, IS, TR",
        "prior": 0,
        "obsTime": "2025-02-10T19:20:00Z",
        "temp": 2,
        "dewp": -3,
        "wdir": 10,
        "wspd": 11,
        "cldCvg1": "BKN",
        "cldBas1": 25,
        "ceil": 25,
        "cover": "BKN",
        "fltcat": "MVFR",
        "visib": "6+",
        "altim": 1029,
        "rawOb": "LTFM 101920Z 01011KT 9999 BKN025 02/M03 Q1029 NOSIG RMK RWY17L 36012KT RWY34L 35012KT RWY16R 35011KT RWY36 36012KT RWY18 01012KT",
        "geometry": {
            "type": "Point",
            "coordinates": [
                28.74,
                41.262
            ]
        },
        "wspd_kmph": 20.4,
        "rh": 69.5,
        "weather_description": "Good evening! Here's the latest weather update for Istanbul Airport. Currently, we're experiencing a chilly temperature of <b>2 °C</b> with a relative humidity of <b>69.5%</b>, making it feel quite crisp out there. It's advisable to bundle up if you're heading outside. The wind is whipping through at a speed of <b>20.4 km/h</b>, so expect a bit of a breeze that might make it feel even colder. Overall, it’s a brisk, refreshing evening in Istanbul, perfect for a warm drink!"
    },
    "KLAX": {
        "id": "KLAX",
        "site": "Los Angeles Intl, CA, US",
        "prior": 0,
        "obsTime": "2025-02-10T18:53:00Z",
        "temp": 15.6,
        "dewp": 8.3,
        "wdir": 90,
        "wspd": 7,
        "cldCvg1": "SCT",
        "cldBas1": 24,
        "cldCvg2": "BKN",
        "cldBas2": 32,
        "ceil": 32,
        "cover": "BKN",
        "fltcat": "VFR",
        "visib": "10+",
        "altim": 1018.7,
        "slp": 1018.6,
        "rawOb": "KLAX 101853Z 09007KT 10SM SCT024 BKN032 16/08 A3008 RMK AO2 SLP186 T01560083",
        "geometry": {
            "type": "Point",
            "coordinates": [
                -118.387,
                33.9382
            ]
        },
        "wspd_kmph": 13.0,
        "rh": 61.8,
        "weather_description": "Good evening! Here's your weather update for Los Angeles International. Currently, the temperature is a cool <b>15.6 °C</b>, with a relative humidity of <b>61.8%</b>, making it feel quite pleasant outside. We've got a gentle breeze blowing in from the west at about <b>13.0 km/h</b>. Overall, it's a lovely day to be outdoors, so if you have any plans, you should enjoy the nice weather!"
    },
    "WIII": {
        "id": "WIII",
        "site": "Jakarta/Hatta Intl, JB, ID",
        "prior": 1,
        "obsTime": "2025-02-10T19:30:00Z",
        "temp": 25,
        "dewp": 23,
        "wdir": 300,
        "wspd": 6,
        "cldCvg1": "FEW",
        "cldBas1": 17,
        "cldCvg2": "BKN",
        "cldBas2": 18,
        "ceil": 18,
        "cover": "BKN",
        "fltcat": "MVFR",
        "visib": 4.35,
        "altim": 1010,
        "wx": "VCTS",
        "rawOb": "WIII 101930Z 30006KT 7000 VCTS FEW017CB BKN018 25/23 Q1010 NOSIG RMK CB TO NE",
        "geometry": {
            "type": "Point",
            "coordinates": [
                106.659,
                -6.125
            ]
        },
        "wx_descrip": "thunderstorm in the vicinity",
        "wspd_kmph": 11.1,
        "rh": 88.7,
        "weather_description": "Good evening! Today in Jakarta at Hatta International Airport, we are experiencing some stormy weather. The temperature is currently a warm <b>25 °C</b>, and the air is quite humid, with a relative humidity of <b>88.7%</b>. There’s a thunderstorm in the vicinity, so be cautious if you're heading out. Winds are picking up, blowing at speeds of <b>11.1 km/h</b>. Be sure to keep an eye on your umbrellas, folks! Stay safe and dry!"
    }
}