{
    "CYYZ": {
        "id": "CYYZ",
        "site": "Toronto/Pearson Intl, ON, CA",
        "prior": 3,
        "obsTime": "2025-02-11T04:00:00Z",
        "temp": -9,
        "dewp": -13,
        "wdir": 260,
        "wspd": 6,
        "cldCvg1": "SKC",
        "cover": "SKC",
        "fltcat": "VFR",
        "visib": 15,
        "altim": 1027.9,
        "slp": 1029.2,
        "rawOb": "CYYZ 110400Z 26006KT 15SM SKC M09/M13 A3035 RMK SLP292",
        "geometry": {
            "type": "Point",
            "coordinates": [
                -79.629,
                43.679
            ]
        },
        "wspd_kmph": 11.1,
        "rh": 72.7,
        "weather_description": "Good evening, Toronto! At Pearson International Airport, we're looking at chilly conditions tonight with a temperature of <b>-9 °C</b>. The relative humidity is sitting at a comfortable <b>72.7%</b>, which may make it feel a bit cooler outside. We've got a light wind blowing from the north at <b>11.1 km/h</b>, so make sure to bundle up if you're heading out. Stay warm and have a great evening!"
    },
    "OMDB": {
        "id": "OMDB",
        "site": "Dubai Intl, DU, AE",
        "prior": 3,
        "obsTime": "2025-02-11T04:30:00Z",
        "temp": 18,
        "dewp": 10,
        "wdir": 90,
        "wspd": 4,
        "cldCvg1": "CAVOK",
        "cover": "CAVOK",
        "fltcat": "VFR",
        "visib": "6+",
        "altim": 1019,
        "rawOb": "OMDB 110430Z 09004KT CAVOK 18/10 Q1019 NOSIG",
        "geometry": {
            "type": "Point",
            "coordinates": [
                55.366,
                25.254
            ]
        },
        "wspd_kmph": 7.4,
        "rh": 59.5,
        "weather_description": "Good evening! Here’s the weather update from Dubai Intl. Currently, the temperature is a comfortable <b>18 °C</b> with a relative humidity sitting at <b>59.5%</b>. It feels quite pleasant out there! The winds are blowing gently at <b>7.4 km/h</b>, making it a lovely evening to be outdoors. Whether you’re heading out for dinner or just relaxing at home, the weather is certainly on your side!"
    },
    "LTFM": {
        "id": "LTFM",
        "site": "Istanbul Arpt, IS, TR",
        "prior": 0,
        "obsTime": "2025-02-11T04:20:00Z",
        "temp": 1,
        "dewp": 0,
        "wdir": 360,
        "wspd": 14,
        "cldCvg1": "SCT",
        "cldBas1": 4,
        "cldCvg2": "FEW",
        "cldBas2": 17,
        "cldCvg3": "BKN",
        "cldBas3": 22,
        "ceil": 22,
        "cover": "BKN",
        "fltcat": "LIFR",
        "visib": 0.56,
        "altim": 1029,
        "wx": "SHSN",
        "rawOb": "LTFM 110420Z 36014KT 0900 R35R/P1500N R17L/0900D R34L/P1500D R36/P1500N SHSN SCT004 FEW017TCU BKN022 01/M00 Q1029 BECMG TL0520 6000 NSW RMK RWY17L 35012KT RWY34L 35015KT RWY16R 35013KT RWY36 35014KT RWY18 34014KT",
        "geometry": {
            "type": "Point",
            "coordinates": [
                28.74,
                41.262
            ]
        },
        "wx_descrip": "moderate showers snow",
        "wspd_kmph": 25.9,
        "weather_description": "Good day from Istanbul Arpt! We are currently experiencing chilly conditions with a temperature of just <b>1 °C</b>. The skies are cloudy, bringing us moderate showers of snow, so be sure to bundle up if you're heading outside! Winds are picking up, gusting at about <b>25.9 km/h</b>, which could make it feel even colder. Stay warm and safe out there!"
    },
    "KLAX": {
        "id": "KLAX",
        "site": "Los Angeles Intl, CA, US",
        "prior": 0,
        "obsTime": "2025-02-11T03:53:00Z",
        "temp": 13.3,
        "dewp": 9.4,
        "wdir": 260,
        "wspd": 4,
        "cldCvg1": "FEW",
        "cldBas1": 28,
        "cldCvg2": "OVC",
        "cldBas2": 35,
        "ceil": 35,
        "cover": "OVC",
        "fltcat": "VFR",
        "visib": "10+",
        "altim": 1016.7,
        "slp": 1016.5,
        "rawOb": "KLAX 110353Z 26004KT 10SM FEW028 OVC035 13/09 A3002 RMK AO2 CIG 028 RWY24 SLP165 T01330094 $",
        "geometry": {
            "type": "Point",
            "coordinates": [
                -118.387,
                33.9382
            ]
        },
        "wspd_kmph": 7.4,
        "rh": 77.2,
        "weather_description": "Good evening! Here’s the latest weather update for Los Angeles International Airport. We’re currently observing a mild temperature of <b>13.3 °C</b>, which feels quite comfortable. The relative humidity is at a notable <b>77.2%</b>, giving us a bit of that moist feel in the air. As for the wind, it’s gently blowing at <b>7.4 km/h</b>, so you might want to grab a light jacket if you're headed out. Overall, it’s a pleasant evening in LA, perfect for a stroll outside!"
    },
    "WIII": {
        "id": "WIII",
        "site": "Jakarta/Hatta Intl, JB, ID",
        "prior": 1,
        "obsTime": "2025-02-11T04:30:00Z",
        "temp": 30,
        "dewp": 24,
        "wdir": 330,
        "wspd": 12,
        "cldCvg1": "BKN",
        "cldBas1": 18,
        "ceil": 18,
        "cover": "BKN",
        "fltcat": "MVFR",
        "visib": 5.59,
        "altim": 1011,
        "rawOb": "WIII 110430Z 33012KT 9000 BKN018 30/24 Q1011 NOSIG",
        "geometry": {
            "type": "Point",
            "coordinates": [
                106.659,
                -6.125
            ]
        },
        "wspd_kmph": 22.2,
        "rh": 70.3,
        "weather_description": "Good evening from Jakarta! Today, we’re experiencing warm conditions with a temperature of <b>30 °C</b>. The relative humidity is at a comfortable level of <b>70.3%</b>, making it feel a bit muggy, so you might want to stay hydrated. Winds are coming in from the east at a brisk <b>22.2 km/h</b>, providing a nice relief from that heat. Overall, it’s a typical tropical day here in Jakarta, so whether you’re out and about or enjoying some time indoors, make sure to keep cool!"
    }
}